[{"OBJECT_NAME":"STARLINK-36215","OBJECT_ID":"2025-298AB","EPOCH":"2026-03-09T22:31:42.809088","MEAN_MOTION":14.99137511,"ECCENTRICITY":0.00025723,"INCLINATION":70.0018,"RA_OF_ASC_NODE":13.862,"ARG_OF_PERICENTER":279.071,"MEAN_ANOMALY":81.0158,"EPHEMERIS_TYPE":0,"CLASSIFICATION_TYPE":"U","NORAD_CAT_ID":67100,"ELEMENT_SET_NO":999,"REV_AT_EPOCH":1325,"BSTAR":0.00094826761,"MEAN_MOTION_DOT":0.00011479,"MEAN_MOTION_DDOT":0},{"OBJECT_NAME":"COSMOS 2228","OBJECT_ID":"1992-094A","EPOCH":"2026-03-09T22:06:22.986432","MEAN_MOTION":14.97191104,"ECCENTRICITY":0.00167811,"INCLINATION":82.5157,"RA_OF_ASC_NODE":237.0886,"ARG_OF_PERICENTER":303.9293,"MEAN_ANOMALY":56.0333,"EPHEMERIS_TYPE":0,"CLASSIFICATION_TYPE":"U","NORAD_CAT_ID":22286,"ELEMENT_SET_NO":999,"REV_AT_EPOCH":77609,"BSTAR":0.0002463535,"MEAN_MOTION_DOT":2.881e-5,"MEAN_MOTION_DDOT":0}]
